ONEWEB-0201             
1 48241U 21031AH  23133.55318051 -.00000176  00000+0 -50877-3 0  9991
2 48241  87.9035 154.7135 0001947  88.8205 271.3147 13.14501650 99842
ONEWEB-0207             
1 48242U 21031AJ  23133.52780463  .00000027  00000+0  39661-4 0  9991
2 48242  87.9037 154.6851 0001783  94.6555 265.4778 13.14505196 99753
ONEWEB-0208             
1 48243U 21031AK  23133.50560080  .00000260  00000+0  66616-3 0  9999
2 48243  87.9033 154.7102 0001997  81.0314 279.1042 13.14504772 99766
ONEWEB-0200             
1 48244U 21031AL  23133.54578307 -.00000195  00000+0 -56116-3 0  9998
2 48244  87.9032 154.6928 0002039  81.4372 278.6989 13.14501439 99690
ONEWEB-0217             
1 48245U 21031AM  23133.48658083 -.00000050  00000+0 -16803-3 0  9991
2 48245  87.9035 154.6838 0002101  77.4750 282.6614 13.14504281 99631
ONEWEB-0211             
1 48767U 21045A   23133.50363778  .00000223  00000+0  55862-3 0  9990
2 48767  87.8991 124.3332 0002064  84.3237 275.8128 13.15547021 95751
ONEWEB-0223             
1 48768U 21045B   23133.52475881 -.00000177  00000+0 -50338-3 0  9995
2 48768  87.8989 124.3368 0002447  79.4731 280.6675 13.15547945 95742
ONEWEB-0230             
1 48769U 21045C   23133.49728221  .00000211  00000+0  52602-3 0  9994
2 48769  87.9007 124.3846 0002180  86.7435 273.3945 13.15552079 96005
ONEWEB-0237             
1 48770U 21045D   23133.48673620  .00000140  00000+0  33668-3 0  9999
2 48770  87.8991 124.3218 0002709  86.1018 274.0422 13.15547274 95726
ONEWEB-0235             
1 48771U 21045E   23133.45927234 -.00000049  00000+0 -16425-3 0  9992
2 48771  87.8991 124.3610 0003050  86.5048 273.6431 13.15549937 95712
ONEWEB-0242             
1 48772U 21045F   23133.45292791  .00000013  00000+0 -20379-6 0  9992
2 48772  87.8990 124.3542 0002358  90.7798 269.3603 13.15549656 95750
ONEWEB-0241             
1 48773U 21045G   23133.51631986  .00000117  00000+0  27553-3 0  9995
2 48773  87.9085 124.3482 0002386  74.5915 285.5478 13.15548066 95677
ONEWEB-0243             
1 48774U 21045H   23133.47194518 -.00000016  00000+0 -77513-4 0  9998
2 48774  87.8986 124.3293 0002713  89.4769 270.6673 13.15549545 95690
ONEWEB-0222             
1 48775U 21045J   23133.53741633 -.00000075  00000+0 -23231-3 0  9994
2 48775  87.8990 124.3524 0002380  81.4260 278.7140 13.15550713 95744
ONEWEB-0244             
1 48776U 21045K   23133.48250146  .00000099  00000+0  22845-3 0  9997
2 48776  87.9102 124.3452 0002464  93.3680 266.7733 13.15551913 96303
ONEWEB-0247             
1 48777U 21045L   23133.47828023 -.00000109  00000+0 -32325-3 0  9990
2 48777  87.9071 124.3437 0002812  85.1045 275.0407 13.15547773 95740
ONEWEB-0245             
1 48778U 21045M   23133.47403905 -.00000381  00000+0 -10463-2 0  9999
2 48778  87.8987 124.3754 0002182  76.4770 283.6603 13.15546580 95711
ONEWEB-0229             
1 48779U 21045N   23133.46772386 -.00000030  00000+0 -11391-3 0  9994
2 48779  87.8987 124.3649 0002345  92.6440 267.4959 13.15546713 95745
ONEWEB-0228             
1 48780U 21045P   23133.48146307  .00000086  00000+0  19346-3 0  9993
2 48780  87.8986 124.3455 0002288  88.6935 271.4457 13.15551360 95664
ONEWEB-0232             
1 48781U 21045Q   23133.47617640  .00000890  00000+0  23301-2 0  9994
2 48781  87.9016 124.4106 0002011  86.7857 273.3503 13.15548282 95987
ONEWEB-0231             
1 48782U 21045R   23133.53110200 -.00000028  00000+0 -10757-3 0  9999
2 48782  87.9077 124.3430 0002498  85.4054 274.7361 13.15550723 95685
ONEWEB-0234             
1 48783U 21045S   23133.48039324  .00000046  00000+0  89281-4 0  9998
2 48783  87.8989 124.3503 0001931  79.5054 280.6293 13.15546040 95815
ONEWEB-0238             
1 48784U 21045T   23133.49201636  .00000187  00000+0  46248-3 0  9998
2 48784  87.8989 124.3580 0001970  82.8962 277.2393 13.15544696 95716
ONEWEB-0240             
1 48785U 21045U   23133.51420036  .00000093  00000+0  21190-3 0  9994
2 48785  87.8991 124.3284 0002413  75.3664 284.7734 13.15549984 95740
ONEWEB-0246             
1 48786U 21045V   23133.50998731  .00000138  00000+0  33171-3 0  9998
2 48786  87.8990 124.3289 0002644  85.6468 274.4965 13.15546540 95610
ONEWEB-0210             
1 48787U 21045W   23133.48462080  .00000117  00000+0  27590-3 0  9994
2 48787  87.8989 124.3439 0002872  96.7889 263.3568 13.15546021 95653
ONEWEB-0214             
1 48788U 21045X   23133.49518595  .00000216  00000+0  53917-3 0  9991
2 48788  87.8989 124.3308 0002767 100.9046 259.2395 13.15546444 95623
ONEWEB-0221             
1 48789U 21045Y   23133.50153034  .00000192  00000+0  47528-3 0  9991
2 48789  87.8993 124.3366 0002343  82.3133 277.8263 13.15548865 95712
ONEWEB-0213             
1 48790U 21045Z   23133.48885615  .00000130  00000+0  30999-3 0  9993
2 48790  87.8991 124.3589 0002570  86.7051 273.4374 13.15547742 95772
ONEWEB-0212             
1 48791U 21045AA  23133.46984074 -.00000001  00000+0 -37657-4 0  9999
2 48791  87.8991 124.3435 0001791  87.4195 272.7140 13.15548129 95766
ONEWEB-0227             
1 48792U 21045AB  23133.46349981 -.00000028  00000+0 -10776-3 0  9993
2 48792  87.8991 124.3581 0002217  82.2930 277.8452 13.15545131 95710
ONEWEB-0226             
1 48793U 21045AC  23133.53320329 -.00000058  00000+0 -18784-3 0  9997
2 48793  87.8991 124.3533 0002797  92.5189 267.6261 13.15549760 95695
ONEWEB-0224             
1 48794U 21045AD  23133.49941067  .00000178  00000+0  43957-3 0  9992
2 48794  87.9077 124.3471 0001758  70.9324 289.1996 13.15546555 95615
ONEWEB-0233             
1 48795U 21045AE  23133.49293446  .00000208  00000+0  51807-3 0  9991
2 48795  87.9014 124.4279 0002120  85.3450 274.7922 13.15545483 95627
ONEWEB-0190             
1 48796U 21045AF  23133.49096815  .00000177  00000+0  43684-3 0  9992
2 48796  87.8987 124.3639 0003323  83.4222 276.7286 13.15548968 95702
ONEWEB-0236             
1 48797U 21045AG  23133.50786651  .00000189  00000+0  46815-3 0  9991
2 48797  87.8990 124.3305 0002080  85.0373 275.0995 13.15547948 95594
ONEWEB-0248             
1 48798U 21045AH  23133.52054186  .00000040  00000+0  72568-4 0  9996
2 48798  87.8992 124.3419 0002690  71.4185 288.7237 13.15548383 95752
ONEWEB-0225             
1 48799U 21045AJ  23133.54165423 -.00000118  00000+0 -34773-3 0  9999
2 48799  87.8985 124.3554 0002784  82.2237 277.9209 13.15550112 95760
ONEWEB-0215             
1 48800U 21045AK  23133.51208339  .00000149  00000+0  36180-3 0  9999
2 48800  87.8990 124.3332 0003015  75.8847 284.2618 13.15545394 95633
ONEWEB-0216             
1 48801U 21045AL  23133.52265429  .00000030  00000+0  46238-4 0  9999
2 48801  87.8990 124.3679 0002342  95.5700 264.5698 13.15549905 95649
ONEWEB-0239             
1 48802U 21045AM  23133.52688374 -.00000017  00000+0 -80084-4 0  9992
2 48802  87.8992 124.3169 0002945  72.9484 287.1969 13.15548501 95680
ONEWEB-0249             
1 48967U 21060A   23133.44532991 -.00000030  00000+0 -11320-3 0  9996
2 48967  87.8999  93.8883 0002012  84.6459 275.4902 13.16596548 90822
ONEWEB-0250             
1 48968U 21060B   23133.44956349 -.00000135  00000+0 -38694-3 0  9993
2 48968  87.8998  93.8963 0002372  76.6450 283.4946 13.16594388 90807
ONEWEB-0252             
1 48970U 21060D   23133.40100351  .00000148  00000+0  35428-3 0  9990
2 48970  87.9006  93.9039 0002166  88.9341 271.2038 13.16597089 90866
ONEWEB-0253             
1 48971U 21060E   23133.39045665  .00000179  00000+0  43479-3 0  9994
2 48971  87.9108  93.8869 0002576  84.7971 275.3453 13.16591324 90792
ONEWEB-0254             
1 48972U 21060F   23133.39891345  .00000108  00000+0  24991-3 0  9999
2 48972  87.9005  93.8927 0002443  81.1183 279.0225 13.16593358 90790
ONEWEB-0255             
1 48973U 21060G   23133.43690522  .00000029  00000+0  42184-4 0  9996
2 48973  87.8996  93.9352 0002105  82.3975 277.7395 13.16595573 90872
ONEWEB-0256             
1 48974U 21060H   23133.38624213  .00000015  00000+0  62618-5 0  9995
2 48974  87.9074  93.9189 0002054  93.2276 266.9090 13.16595569 90830
ONEWEB-0257             
1 48975U 21060J   23133.42001350  .00000153  00000+0  36678-3 0  9990
2 48975  87.8990  93.9192 0002243  88.9092 271.2295 13.16593786 90798
ONEWEB-0258             
1 48976U 21060K   23133.34612457  .00000130  00000+0  30596-3 0  9996
2 48976  87.8999  93.9543 0002156  80.5669 279.5705 13.16595836 90794
ONEWEB-0259             
1 48977U 21060L   23133.41579154  .00000156  00000+0  37516-3 0  9998
2 48977  87.8999  93.9226 0002299  74.4324 285.7060 13.16595851 90836
ONEWEB-0260             
1 48978U 21060M   23133.40944640  .00000167  00000+0  40386-3 0  9995
2 48978  87.8986  93.8848 0002544 102.3562 257.7854 13.16592284 90815
ONEWEB-0261             
1 48979U 21060N   23133.37567189  .00000018  00000+0  12323-4 0  9997
2 48979  87.8991  93.9109 0002502  86.2637 273.8780 13.16592899 90864
ONEWEB-0262             
1 48980U 21060P   23133.43267325 -.00000085  00000+0 -25605-3 0  9997
2 48980  87.9010  93.8979 0002547  72.2206 287.9203 13.16593245 90838
ONEWEB-0263             
1 48981U 21060Q   23133.38833403  .00000072  00000+0  15379-3 0  9999
2 48981  87.9013  93.9176 0002720  78.5338 281.6098 13.16596253 90790
ONEWEB-0264             
1 48982U 21060R   23133.42529006  .00000096  00000+0  21793-3 0  9999
2 48982  87.9022  93.8988 0002111  83.6778 276.4593 13.16592649 90809
ONEWEB-0266             
1 48984U 21060T   23133.44744805  .00000000  00000+0 -33717-4 0  9995
2 48984  87.9006  93.9013 0001992  79.5116 280.6239 13.16590748 90799
ONEWEB-0267             
1 48985U 21060U   23133.45803193  .00004186  00000+0  10914-1 0  9992
2 48985  87.9004  93.8990 0002469  87.1661 272.9752 13.16576373 90805
ONEWEB-0268             
1 48986U 21060V   23133.42634871  .00000085  00000+0  18912-3 0  9997
2 48986  87.9008  93.9088 0002085  89.0406 271.0964 13.16588875 91065
